{
  "type": "FeatureCollection",
  "features": [
    {
      "type": "Feature",
      "properties": {
        "norad_id": 35705,
        "name": "COSMOS 2251 DEB",
        "group": "cosmos-2251-debris",
        "lat": -29.535574351585517,
        "lon": -38.58455066375633,
        "alt_km": 674.0662379296073,
        "timestamp": "2025-12-14T14:39:29.765608+00:00",
        "meta_object_name": "COSMOS 2251 DEB",
        "meta_object_id": "1993-036AQA",
        "meta_epoch": "2025-12-13T16:30:25.570944",
        "meta_mean_motion": 14.72285684,
        "meta_eccentricity": 0.00330748,
        "meta_inclination": 74.2763,
        "meta_ra_of_asc_node": 133.9994,
        "meta_arg_of_pericenter": 83.0917,
        "meta_mean_anomaly": 277.4017,
        "meta_ephemeris_type": 0,
        "meta_classification_type": "U",
        "meta_norad_cat_id": 35705,
        "meta_element_set_no": 999,
        "meta_rev_at_epoch": 85940,
        "meta_bstar": 0.003032246,
        "meta_mean_motion_dot": 0.00019351,
        "meta_mean_motion_ddot": 0,
        "tle_line1": "1 35705U 93036AQA 25347.68779596  .00019351  00000+0  30322-2 0  9999",
        "tle_line2": "2 35705  74.2763 133.9994 0033074  83.0917 277.4017 14.72285684859405"
      },
      "geometry": {
        "type": "Point",
        "coordinates": [
          -38.58455066375633,
          -29.535574351585517
        ]
      }
    },
    {
      "type": "Feature",
      "properties": {
        "norad_id": 35706,
        "name": "COSMOS 2251 DEB",
        "group": "cosmos-2251-debris",
        "lat": 60.64169180004511,
        "lon": -151.19876157874165,
        "alt_km": 757.128048755073,
        "timestamp": "2025-12-14T14:39:29.765618+00:00",
        "meta_object_name": "COSMOS 2251 DEB",
        "meta_object_id": "1993-036AQB",
        "meta_epoch": "2025-12-11T12:17:37.968864",
        "meta_mean_motion": 13.65920781,
        "meta_eccentricity": 0.03407993,
        "meta_inclination": 73.8889,
        "meta_ra_of_asc_node": 64.8358,
        "meta_arg_of_pericenter": 114.8803,
        "meta_mean_anomaly": 248.8145,
        "meta_ephemeris_type": 0,
        "meta_classification_type": "U",
        "meta_norad_cat_id": 35706,
        "meta_element_set_no": 999,
        "meta_rev_at_epoch": 62045,
        "meta_bstar": 0.0015097542,
        "meta_mean_motion_dot": 1.827e-05,
        "meta_mean_motion_ddot": 0,
        "tle_line1": "1 35706U 93036AQB 25345.51224501  .00001827  00000+0  15098-2 0  9993",
        "tle_line2": "2 35706  73.8889  64.8358 0340799 114.8803 248.8145 13.65920781620458"
      },
      "geometry": {
        "type": "Point",
        "coordinates": [
          -151.19876157874165,
          60.64169180004511
        ]
      }
    },
    {
      "type": "Feature",
      "properties": {
        "norad_id": 35711,
        "name": "COSMOS 2251 DEB",
        "group": "cosmos-2251-debris",
        "lat": 50.0366358878441,
        "lon": 16.90882549783095,
        "alt_km": 735.3038429931048,
        "timestamp": "2025-12-14T14:39:29.765628+00:00",
        "meta_object_name": "COSMOS 2251 DEB",
        "meta_object_id": "1993-036AQG",
        "meta_epoch": "2025-12-13T21:40:31.237248",
        "meta_mean_motion": 14.63806104,
        "meta_eccentricity": 0.00854278,
        "meta_inclination": 74.0455,
        "meta_ra_of_asc_node": 218.2268,
        "meta_arg_of_pericenter": 318.9377,
        "meta_mean_anomaly": 40.5379,
        "meta_ephemeris_type": 0,
        "meta_classification_type": "U",
        "meta_norad_cat_id": 35711,
        "meta_element_set_no": 999,
        "meta_rev_at_epoch": 87788,
        "meta_bstar": 0.00030192752,
        "meta_mean_motion_dot": 1.628e-05,
        "meta_mean_motion_ddot": 0,
        "tle_line1": "1 35711U 93036AQG 25347.90313932  .00001628  00000+0  30193-3 0  9994",
        "tle_line2": "2 35711  74.0455 218.2268 0085427 318.9377  40.5379 14.63806104877886"
      },
      "geometry": {
        "type": "Point",
        "coordinates": [
          16.90882549783095,
          50.0366358878441
        ]
      }
    },
    {
      "type": "Feature",
      "properties": {
        "norad_id": 35716,
        "name": "COSMOS 2251 DEB",
        "group": "cosmos-2251-debris",
        "lat": -1.957626545190874,
        "lon": 11.187075962512282,
        "alt_km": 750.339494087405,
        "timestamp": "2025-12-14T14:39:29.765637+00:00",
        "meta_object_name": "COSMOS 2251 DEB",
        "meta_object_id": "1993-036AQM",
        "meta_epoch": "2025-12-10T22:58:34.278816",
        "meta_mean_motion": 14.60083428,
        "meta_eccentricity": 0.0088633,
        "meta_inclination": 73.9924,
        "meta_ra_of_asc_node": 197.6138,
        "meta_arg_of_pericenter": 39.0207,
        "meta_mean_anomaly": 26.7611,
        "meta_ephemeris_type": 0,
        "meta_classification_type": "U",
        "meta_norad_cat_id": 35716,
        "meta_element_set_no": 999,
        "meta_rev_at_epoch": 87601,
        "meta_bstar": 0.00015815,
        "meta_mean_motion_dot": 7.71e-06,
        "meta_mean_motion_ddot": 0,
        "tle_line1": "1 35716U 93036AQM 25344.95734119  .00000771  00000+0  15815-3 0  9997",
        "tle_line2": "2 35716  73.9924 197.6138 0088633  39.0207  26.7611 14.60083428876013"
      },
      "geometry": {
        "type": "Point",
        "coordinates": [
          11.187075962512282,
          -1.957626545190874
        ]
      }
    },
    {
      "type": "Feature",
      "properties": {
        "norad_id": 35717,
        "name": "COSMOS 2251 DEB",
        "group": "cosmos-2251-debris",
        "lat": 13.185369317654324,
        "lon": 30.261796672833967,
        "alt_km": 766.6261038418797,
        "timestamp": "2025-12-14T14:39:29.765647+00:00",
        "meta_object_name": "COSMOS 2251 DEB",
        "meta_object_id": "1993-036AQN",
        "meta_epoch": "2025-12-11T09:07:06.227616",
        "meta_mean_motion": 14.38476212,
        "meta_eccentricity": 0.00768139,
        "meta_inclination": 74.1604,
        "meta_ra_of_asc_node": 219.9837,
        "meta_arg_of_pericenter": 79.9617,
        "meta_mean_anomaly": 281.0194,
        "meta_ephemeris_type": 0,
        "meta_classification_type": "U",
        "meta_norad_cat_id": 35717,
        "meta_element_set_no": 999,
        "meta_rev_at_epoch": 74080,
        "meta_bstar": 0.0019460313,
        "meta_mean_motion_dot": 6.131e-05,
        "meta_mean_motion_ddot": 0,
        "tle_line1": "1 35717U 93036AQN 25345.37993319  .00006131  00000+0  19460-2 0  9999",
        "tle_line2": "2 35717  74.1604 219.9837 0076813  79.9617 281.0194 14.38476212740802"
      },
      "geometry": {
        "type": "Point",
        "coordinates": [
          30.261796672833967,
          13.185369317654324
        ]
      }
    },
    {
      "type": "Feature",
      "properties": {
        "norad_id": 35718,
        "name": "COSMOS 2251 DEB",
        "group": "cosmos-2251-debris",
        "lat": 63.259702239326856,
        "lon": -88.28072469756901,
        "alt_km": 655.1379832412704,
        "timestamp": "2025-12-14T14:39:29.765657+00:00",
        "meta_object_name": "COSMOS 2251 DEB",
        "meta_object_id": "1993-036AQP",
        "meta_epoch": "2025-12-12T03:17:53.201184",
        "meta_mean_motion": 14.68638717,
        "meta_eccentricity": 0.00109549,
        "meta_inclination": 74.0319,
        "meta_ra_of_asc_node": 131.1364,
        "meta_arg_of_pericenter": 179.8219,
        "meta_mean_anomaly": 180.2958,
        "meta_ephemeris_type": 0,
        "meta_classification_type": "U",
        "meta_norad_cat_id": 35718,
        "meta_element_set_no": 999,
        "meta_rev_at_epoch": 65831,
        "meta_bstar": 0.002396412,
        "meta_mean_motion_dot": 0.00013946,
        "meta_mean_motion_ddot": 0,
        "tle_line1": "1 35718U 93036AQP 25346.13742131  .00013946  00000+0  23964-2 0  9995",
        "tle_line2": "2 35718  74.0319 131.1364 0010954 179.8219 180.2958 14.68638717658312"
      },
      "geometry": {
        "type": "Point",
        "coordinates": [
          -88.28072469756901,
          63.259702239326856
        ]
      }
    },
    {
      "type": "Feature",
      "properties": {
        "norad_id": 35721,
        "name": "COSMOS 2251 DEB",
        "group": "cosmos-2251-debris",
        "lat": -71.46235100388476,
        "lon": 53.45122994723401,
        "alt_km": 730.0297446269406,
        "timestamp": "2025-12-14T14:39:29.765667+00:00",
        "meta_object_name": "COSMOS 2251 DEB",
        "meta_object_id": "1993-036AQS",
        "meta_epoch": "2025-12-09T19:36:39.465216",
        "meta_mean_motion": 14.34317214,
        "meta_eccentricity": 0.01465875,
        "meta_inclination": 73.9489,
        "meta_ra_of_asc_node": 183.1196,
        "meta_arg_of_pericenter": 330.1589,
        "meta_mean_anomaly": 29.126,
        "meta_ephemeris_type": 0,
        "meta_classification_type": "U",
        "meta_norad_cat_id": 35721,
        "meta_element_set_no": 999,
        "meta_rev_at_epoch": 57747,
        "meta_bstar": 0.0018396061,
        "meta_mean_motion_dot": 5.808e-05,
        "meta_mean_motion_ddot": 0,
        "tle_line1": "1 35721U 93036AQS 25343.81712344  .00005808  00000+0  18396-2 0  9995",
        "tle_line2": "2 35721  73.9489 183.1196 0146587 330.1589  29.1260 14.34317214577479"
      },
      "geometry": {
        "type": "Point",
        "coordinates": [
          53.45122994723401,
          -71.46235100388476
        ]
      }
    }
  ]
}